{
  "type": "FeatureCollection",
  "features": [
    {
      "type": "Feature",
      "properties": {
        "norad_id": 35234,
        "name": "FENGYUN 1C DEB",
        "group": "fengyun-1c-debris",
        "lat": -14.162662898232348,
        "lon": -157.58686762639633,
        "alt_km": 623.084040292897,
        "timestamp": "2025-12-22T16:55:17.751496+00:00",
        "meta_object_name": "FENGYUN 1C DEB",
        "meta_object_id": "1999-025DQS",
        "meta_epoch": "2025-12-16T07:38:43.883808",
        "meta_mean_motion": 14.65576253,
        "meta_eccentricity": 0.00998673,
        "meta_inclination": 98.0689,
        "meta_ra_of_asc_node": 18.1928,
        "meta_arg_of_pericenter": 251.0842,
        "meta_mean_anomaly": 107.9515,
        "meta_ephemeris_type": 0,
        "meta_classification_type": "U",
        "meta_norad_cat_id": 35234,
        "meta_element_set_no": 999,
        "meta_rev_at_epoch": 94408,
        "meta_bstar": 0.00038790099,
        "meta_mean_motion_dot": 2.212e-05,
        "meta_mean_motion_ddot": 0,
        "tle_line1": "1 35234U 99025DQS 25350.31856347  .00002212  00000+0  38790-3 0  9990",
        "tle_line2": "2 35234  98.0689  18.1928 0099867 251.0842 107.9515 14.65576253944086"
      },
      "geometry": {
        "type": "Point",
        "coordinates": [
          -157.58686762639633,
          -14.162662898232348
        ]
      }
    },
    {
      "type": "Feature",
      "properties": {
        "norad_id": 35239,
        "name": "FENGYUN 1C DEB",
        "group": "fengyun-1c-debris",
        "lat": 11.550926377834477,
        "lon": 155.09902887019547,
        "alt_km": 852.2725549503612,
        "timestamp": "2025-12-22T16:55:17.751506+00:00",
        "meta_object_name": "FENGYUN 1C DEB",
        "meta_object_id": "1999-025DQX",
        "meta_epoch": "2025-12-21T09:18:02.248992",
        "meta_mean_motion": 13.69235322,
        "meta_eccentricity": 0.02296218,
        "meta_inclination": 99.2659,
        "meta_ra_of_asc_node": 155.7432,
        "meta_arg_of_pericenter": 347.8122,
        "meta_mean_anomaly": 11.7527,
        "meta_ephemeris_type": 0,
        "meta_classification_type": "U",
        "meta_norad_cat_id": 35239,
        "meta_element_set_no": 999,
        "meta_rev_at_epoch": 58249,
        "meta_bstar": 0.00099483435,
        "meta_mean_motion_dot": 9.95e-06,
        "meta_mean_motion_ddot": 0,
        "tle_line1": "1 35239U 99025DQX 25355.38752603  .00000995  00000+0  99483-3 0  9999",
        "tle_line2": "2 35239  99.2659 155.7432 0229621 347.8122  11.7527 13.69235322582497"
      },
      "geometry": {
        "type": "Point",
        "coordinates": [
          155.09902887019547,
          11.550926377834477
        ]
      }
    },
    {
      "type": "Feature",
      "properties": {
        "norad_id": 35240,
        "name": "FENGYUN 1C DEB",
        "group": "fengyun-1c-debris",
        "lat": -20.033828974038357,
        "lon": -36.80591964669303,
        "alt_km": 845.8594507434427,
        "timestamp": "2025-12-22T16:55:17.751517+00:00",
        "meta_object_name": "FENGYUN 1C DEB",
        "meta_object_id": "1999-025DQY",
        "meta_epoch": "2025-12-21T08:57:46.113696",
        "meta_mean_motion": 14.23361022,
        "meta_eccentricity": 0.00465427,
        "meta_inclination": 99.3508,
        "meta_ra_of_asc_node": 318.3357,
        "meta_arg_of_pericenter": 126.8493,
        "meta_mean_anomaly": 233.6965,
        "meta_ephemeris_type": 0,
        "meta_classification_type": "U",
        "meta_norad_cat_id": 35240,
        "meta_element_set_no": 999,
        "meta_rev_at_epoch": 93287,
        "meta_bstar": 0.0013571733,
        "meta_mean_motion_dot": 3.064e-05,
        "meta_mean_motion_ddot": 0,
        "tle_line1": "1 35240U 99025DQY 25355.37345039  .00003064  00000+0  13572-2 0  9995",
        "tle_line2": "2 35240  99.3508 318.3357 0046542 126.8493 233.6965 14.23361022932871"
      },
      "geometry": {
        "type": "Point",
        "coordinates": [
          -36.80591964669303,
          -20.033828974038357
        ]
      }
    },
    {
      "type": "Feature",
      "properties": {
        "norad_id": 35241,
        "name": "FENGYUN 1C DEB",
        "group": "fengyun-1c-debris",
        "lat": -57.30635600843187,
        "lon": 91.54833721565184,
        "alt_km": 840.0811744645689,
        "timestamp": "2025-12-22T16:55:17.751527+00:00",
        "meta_object_name": "FENGYUN 1C DEB",
        "meta_object_id": "1999-025DQZ",
        "meta_epoch": "2025-12-11T05:44:22.817472",
        "meta_mean_motion": 14.01929609,
        "meta_eccentricity": 0.0135502,
        "meta_inclination": 98.631,
        "meta_ra_of_asc_node": 274.3792,
        "meta_arg_of_pericenter": 212.8639,
        "meta_mean_anomaly": 146.4048,
        "meta_ephemeris_type": 0,
        "meta_classification_type": "U",
        "meta_norad_cat_id": 35241,
        "meta_element_set_no": 999,
        "meta_rev_at_epoch": 87585,
        "meta_bstar": 0.002553102,
        "meta_mean_motion_dot": 4.174e-05,
        "meta_mean_motion_ddot": 0,
        "tle_line1": "1 35241U 99025DQZ 25345.23915298  .00004174  00000+0  25531-2 0  9991",
        "tle_line2": "2 35241  98.6310 274.3792 0135502 212.8639 146.4048 14.01929609875856"
      },
      "geometry": {
        "type": "Point",
        "coordinates": [
          91.54833721565184,
          -57.30635600843187
        ]
      }
    },
    {
      "type": "Feature",
      "properties": {
        "norad_id": 35242,
        "name": "FENGYUN 1C DEB",
        "group": "fengyun-1c-debris",
        "lat": -9.57935480238725,
        "lon": 51.014036189508985,
        "alt_km": 1290.7891959505914,
        "timestamp": "2025-12-22T16:55:17.751537+00:00",
        "meta_object_name": "FENGYUN 1C DEB",
        "meta_object_id": "1999-025DRA",
        "meta_epoch": "2025-12-21T22:18:26.785152",
        "meta_mean_motion": 13.52365631,
        "meta_eccentricity": 0.03018081,
        "meta_inclination": 99.9691,
        "meta_ra_of_asc_node": 48.533,
        "meta_arg_of_pericenter": 166.1943,
        "meta_mean_anomaly": 10.5096,
        "meta_ephemeris_type": 0,
        "meta_classification_type": "U",
        "meta_norad_cat_id": 35242,
        "meta_element_set_no": 999,
        "meta_rev_at_epoch": 58251,
        "meta_bstar": 0.0013381155,
        "meta_mean_motion_dot": 1.133e-05,
        "meta_mean_motion_ddot": 0,
        "tle_line1": "1 35242U 99025DRA 25355.92947668  .00001133  00000+0  13381-2 0  9997",
        "tle_line2": "2 35242  99.9691  48.5330 0301808 166.1943  10.5096 13.52365631582511"
      },
      "geometry": {
        "type": "Point",
        "coordinates": [
          51.014036189508985,
          -9.57935480238725
        ]
      }
    },
    {
      "type": "Feature",
      "properties": {
        "norad_id": 35243,
        "name": "FENGYUN 1C DEB",
        "group": "fengyun-1c-debris",
        "lat": -9.957939060010158,
        "lon": -104.82139444561659,
        "alt_km": 572.9624620777577,
        "timestamp": "2025-12-22T16:55:17.751548+00:00",
        "meta_object_name": "FENGYUN 1C DEB",
        "meta_object_id": "1999-025DRB",
        "meta_epoch": "2025-12-22T04:45:48.502656",
        "meta_mean_motion": 14.87300189,
        "meta_eccentricity": 0.0065687,
        "meta_inclination": 98.8802,
        "meta_ra_of_asc_node": 76.1854,
        "meta_arg_of_pericenter": 226.8779,
        "meta_mean_anomaly": 132.6929,
        "meta_ephemeris_type": 0,
        "meta_classification_type": "U",
        "meta_norad_cat_id": 35243,
        "meta_element_set_no": 999,
        "meta_rev_at_epoch": 91141,
        "meta_bstar": 0.0024245814,
        "meta_mean_motion_dot": 0.00022751,
        "meta_mean_motion_ddot": 0,
        "tle_line1": "1 35243U 99025DRB 25356.19847804  .00022751  00000+0  24246-2 0  9990",
        "tle_line2": "2 35243  98.8802  76.1854 0065687 226.8779 132.6929 14.87300189911417"
      },
      "geometry": {
        "type": "Point",
        "coordinates": [
          -104.82139444561659,
          -9.957939060010158
        ]
      }
    },
    {
      "type": "Feature",
      "properties": {
        "norad_id": 35244,
        "name": "FENGYUN 1C DEB",
        "group": "fengyun-1c-debris",
        "lat": 10.133402368599373,
        "lon": -141.7100566068386,
        "alt_km": 832.0795081680308,
        "timestamp": "2025-12-22T16:55:17.751558+00:00",
        "meta_object_name": "FENGYUN 1C DEB",
        "meta_object_id": "1999-025DRC",
        "meta_epoch": "2025-12-21T09:23:41.022528",
        "meta_mean_motion": 14.06644711,
        "meta_eccentricity": 0.0072073,
        "meta_inclination": 98.8404,
        "meta_ra_of_asc_node": 35.4126,
        "meta_arg_of_pericenter": 133.4643,
        "meta_mean_anomaly": 227.255,
        "meta_ephemeris_type": 0,
        "meta_classification_type": "U",
        "meta_norad_cat_id": 35244,
        "meta_element_set_no": 999,
        "meta_rev_at_epoch": 65943,
        "meta_bstar": 0.00051773213,
        "meta_mean_motion_dot": 8.37e-06,
        "meta_mean_motion_ddot": 0,
        "tle_line1": "1 35244U 99025DRC 25355.39144702  .00000837  00000+0  51773-3 0  9996",
        "tle_line2": "2 35244  98.8404  35.4126 0072073 133.4643 227.2550 14.06644711659431"
      },
      "geometry": {
        "type": "Point",
        "coordinates": [
          -141.7100566068386,
          10.133402368599373
        ]
      }
    }
  ]
}